NORAD_CAT_ID,OBJECT_NAME,OBJECT_TYPE,EPOCH,MEAN_MOTION,ECCENTRICITY,INCLINATION,RA_OF_ASC_NODE,ARG_OF_PERICENTER,MEAN_ANOMALY,BSTAR,MEAN_MOTION_DOT,MEAN_MOTION_DDOT,TLE_LINE0,TLE_LINE1,TLE_LINE2,SEMIMAJOR_AXIS,PERIOD,APOGEE,PERIGEE,DECAYED
51133.0,STARLINK-3356,PAYLOAD,2024-06-24 09:53:31,15.0884146,0.0001315,53.2165,217.1243,96.1558,263.9584,0.00011646,1.566e-05,0.0,0 STARLINK-3356,1 51133U 22005AF  24176.41217267  .00001566  00000-0  11646-3 0  9991,2 51133  53.2165 217.1243 0001315  96.1558 263.9584 15.08841460135756,6917.876,95.437,540.651,538.831,0.0
51133.0,STARLINK-3356,PAYLOAD,2024-06-25 09:44:19,15.08834541,0.0001326,53.2164,212.6636,94.1753,265.9391,-2.5109e-06,-3.28e-06,0.0,0 STARLINK-3356,1 51133U 22005AF  24177.40578104 -.00000328  00000-0 -25109-5 0  9999,2 51133  53.2164 212.6636 0001326  94.1753 265.9391 15.08834541135905,6917.897,95.438,540.679,538.845,0.0
51133.0,STARLINK-3356,PAYLOAD,2024-06-26 09:35:06,15.08842499,0.0001374,53.2163,208.2015,87.9184,272.1966,6.0928e-05,6.82e-06,0.0,0 STARLINK-3356,1 51133U 22005AF  24178.39937522  .00000682  00000-0  60928-4 0  9999,2 51133  53.2163 208.2015 0001374  87.9184 272.1966 15.08842499136053,6917.873,95.437,540.688,538.787,0.0
51133.0,STARLINK-3356,PAYLOAD,2024-06-27 18:58:12,15.08840567,0.0001303,53.216,201.9575,90.2515,269.8626,9.9849e-05,1.302e-05,0.0,0 STARLINK-3356,1 51133U 22005AF  24179.79041710  .00001302  00000-0  99849-4 0  9993,2 51133  53.2160 201.9575 0001303  90.2515 269.8626 15.08840567136261,6917.879,95.438,540.645,538.842,0.0
51133.0,STARLINK-3356,PAYLOAD,2024-06-28 07:41:17,15.08842365,0.0001339,53.2158,199.579,91.1207,268.9939,6.4847e-05,7.44e-06,0.0,0 STARLINK-3356,1 51133U 22005AF  24180.32033705  .00000744  00000-0  64847-4 0  9998,2 51133  53.2158 199.5790 0001339  91.1207 268.9939 15.08842365135226,6917.873,95.437,540.664,538.812,0.0
51133.0,STARLINK-3356,PAYLOAD,2024-06-29 04:21:17,15.08841803,0.0001327,53.2157,195.7131,91.3456,268.7688,8.6635e-05,1.091e-05,0.0,0 STARLINK-3356,1 51133U 22005AF  24181.18145669  .00001091  00000-0  86635-4 0  9991,2 51133  53.2157 195.7131 0001327  91.3456 268.7688 15.08841803136470,6917.875,95.437,540.658,538.822,0.0
51133.0,STARLINK-3356,PAYLOAD,2024-06-29 10:42:50,15.08839268,0.0001323,53.2158,194.5233,93.4702,266.6442,5.5775e-05,6e-06,0.0,0 STARLINK-3356,1 51133U 22005AF  24181.44641851  .00000600  00000-0  55775-4 0  9990,2 51133  53.2158 194.5233 0001323  93.4702 266.6442 15.08839268135391,6917.883,95.438,540.663,538.832,0.0
51133.0,STARLINK-3356,PAYLOAD,2024-06-30 04:12:05,15.08838022,0.0001253,53.2152,191.2523,92.224,267.8896,5.4856e-05,5.85e-06,0.0,0 STARLINK-3356,1 51133U 22005AF  24182.17505985  .00000585  00000-0  54856-4 0  9999,2 51133  53.2152 191.2523 0001253  92.2240 267.8896 15.08838022136627,6917.886,95.438,540.618,538.885,0.0
51133.0,STARLINK-3356,PAYLOAD,2024-06-30 10:33:37,15.08838131,0.0001296,53.2154,190.0631,93.2675,266.8465,4.9226e-05,4.96e-06,0.0,0 STARLINK-3356,1 51133U 22005AF  24182.44002001  .00000496  00000-0  49226-4 0  9996,2 51133  53.2154 190.0631 0001296  93.2675 266.8465 15.08838131135548,6917.886,95.438,540.648,538.855,0.0
51133.0,STARLINK-3356,PAYLOAD,2024-07-01 05:38:15,15.08838457,0.0001274,53.2151,186.4947,93.4429,266.6709,6.9873e-05,8.24e-06,0.0,0 STARLINK-3356,1 51133U 22005AF  24183.23489988  .00000824  00000-0  69873-4 0  9992,2 51133  53.2151 186.4947 0001274  93.4429 266.6709 15.08838457136786,6917.885,95.438,540.631,538.869,0.0
51133.0,STARLINK-3356,PAYLOAD,2024-07-01 07:13:38,15.08839007,0.0001272,53.215,186.1979,92.7157,267.3981,7.1353e-05,8.48e-06,0.0,0 STARLINK-3356,1 51133U 22005AF  24183.30113961  .00000848  00000-0  71353-4 0  9997,2 51133  53.2150 186.1979 0001272  92.7157 267.3981 15.08839007135674,6917.883,95.438,540.628,538.868,0.0
51133.0,STARLINK-3356,PAYLOAD,2024-07-01 16:45:57,15.08841738,0.0001293,53.2155,184.4139,92.4987,267.6153,8.3435e-05,1.04e-05,0.0,0 STARLINK-3356,1 51133U 22005AF  24183.69857746  .00001040  00000-0  83435-4 0  9994,2 51133  53.2155 184.4139 0001293  92.4987 267.6153 15.08841738135734,6917.875,95.437,540.635,538.846,0.0
51133.0,STARLINK-3356,PAYLOAD,2024-07-02 07:04:25,15.08835687,0.0001403,53.2165,181.739,95.7947,264.3205,3.4255e-05,2.57e-06,0.0,0 STARLINK-3356,1 51133U 22005AF  24184.29474425  .00000257  00000-0  34255-4 0  9995,2 51133  53.2165 181.7390 0001403  95.7947 264.3205 15.08835687136941,6917.894,95.438,540.729,538.788,0.0
51133.0,STARLINK-3356,PAYLOAD,2024-07-02 16:36:44,15.08839528,0.0001407,53.2167,179.9548,95.3825,264.7327,4.9609e-05,5.02e-06,0.0,0 STARLINK-3356,1 51133U 22005AF  24184.69218165  .00000502  00000-0  49609-4 0  9998,2 51133  53.2167 179.9548 0001407  95.3825 264.7327 15.08839528135881,6917.882,95.438,540.72,538.773,0.0
51133.0,STARLINK-3356,PAYLOAD,2024-07-03 08:30:36,15.08834069,0.0001448,53.2172,176.982,97.3869,262.7288,1.4673e-05,-5.4e-07,0.0,0 STARLINK-3356,1 51133U 22005AF  24185.35458777 -.00000054  00000-0  14673-4 0  9993,2 51133  53.2172 176.9820 0001448  97.3869 262.7288 15.08834069137108,6917.899,95.438,540.765,538.762,0.0
51133.0,STARLINK-3356,PAYLOAD,2024-07-03 16:27:31,15.08839783,0.0001426,53.2173,175.4946,92.9395,267.176,2.8362e-05,1.63e-06,0.0,0 STARLINK-3356,1 51133U 22005AF  24185.68578420  .00000163  00000-0  28362-4 0  9997,2 51133  53.2173 175.4946 0001426  92.9395 267.1760 15.08839783136036,6917.881,95.438,540.733,538.76,0.0
51133.0,STARLINK-3356,PAYLOAD,2024-07-04 05:10:36,15.08839455,0.0001369,53.2168,173.1147,91.6443,268.4706,7.7291e-05,9.42e-06,0.0,0 STARLINK-3356,1 51133U 22005AF  24186.21570290  .00000942  00000-0  77291-4 0  9994,2 51133  53.2168 173.1147 0001369  91.6443 268.4706 15.08839455137237,6917.882,95.438,540.694,538.8,0.0
51133.0,STARLINK-3356,PAYLOAD,2024-07-04 08:21:22,15.08840546,0.0001358,53.2165,172.5196,90.3014,269.8134,8.2464e-05,1.025e-05,0.0,0 STARLINK-3356,1 51133U 22005AF  24186.34818208  .00001025  00000-0  82464-4 0  9993,2 51133  53.2165 172.5196 0001358  90.3014 269.8134 15.08840546136130,6917.879,95.438,540.683,538.804,0.0
51133.0,STARLINK-3356,PAYLOAD,2024-07-04 16:18:18,15.08846268,0.0001377,53.2165,171.0322,85.2213,274.8936,8.3317e-05,1.039e-05,0.0,0 STARLINK-3356,1 51133U 22005AF  24186.67937759  .00001039  00000-0  83317-4 0  9995,2 51133  53.2165 171.0322 0001377  85.2213 274.8936 15.08846268136188,6917.861,95.437,540.679,538.774,0.0
51133.0,STARLINK-3356,PAYLOAD,2024-07-05 08:12:09,15.0883998,0.000142,53.2169,168.0575,88.8568,271.2586,7.1349e-05,8.48e-06,0.0,0 STARLINK-3356,1 51133U 22005AF  24187.34178223  .00000848  00000-0  71349-4 0  9992,2 51133  53.2169 168.0575 0001420  88.8568 271.2586 15.08839980137400,6917.88,95.438,540.728,538.763,0.0
51133.0,STARLINK-3356,PAYLOAD,2024-07-05 16:09:05,15.08843344,0.0001316,53.2165,166.5724,90.2338,269.8805,7.0483e-05,8.34e-06,0.0,0 STARLINK-3356,1 51133U 22005AF  24187.67297956  .00000834  00000-0  70483-4 0  9996,2 51133  53.2165 166.5724 0001316  90.2338 269.8805 15.08843344136338,6917.87,95.437,540.646,538.825,0.0
51133.0,STARLINK-3356,PAYLOAD,2024-07-06 08:02:57,15.08840825,0.0001483,53.2181,163.5966,101.0618,259.0541,-1.6673e-05,-5.53e-06,0.0,0 STARLINK-3356,1 51133U 22005AF  24188.33538351 -.00000553  00000-0 -16673-4 0  9998,2 51133  53.2181 163.5966 0001483 101.0618 259.0541 15.08840825136438,6917.878,95.438,540.769,538.717,0.0
51133.0,STARLINK-3356,PAYLOAD,2024-07-06 15:59:52,15.08843059,0.0001508,53.2185,162.1099,99.7364,260.3799,-1.2442e-05,-4.86e-06,0.0,0 STARLINK-3356,1 51133U 22005AF  24188.66658106 -.00000486  00000-0 -12442-4 0  9990,2 51133  53.2185 162.1099 0001508  99.7364 260.3799 15.08843059137605,6917.871,95.437,540.779,538.693,0.0
51133.0,STARLINK-3356,PAYLOAD,2024-07-07 07:53:44,15.08836252,0.0001576,53.2182,159.1366,104.7898,255.3269,-7.2419e-07,-3e-06,0.0,0 STARLINK-3356,1 51133U 22005AF  24189.32898512 -.00000300  00000-0 -72419-6 0  9998,2 51133  53.2182 159.1366 0001576 104.7898 255.3269 15.08836252137703,6917.892,95.438,540.847,538.667,0.0
51133.0,STARLINK-3356,PAYLOAD,2024-07-08 07:44:31,15.08839935,0.0001404,53.2173,154.6779,96.7741,263.3411,3.7487e-05,3.09e-06,0.0,0 STARLINK-3356,1 51133U 22005AF  24190.32258302  .00000309  00000-0  37487-4 0  9998,2 51133  53.2173 154.6779 0001404  96.7741 263.3411 15.08839935136739,6917.881,95.438,540.717,538.774,0.0
51133.0,STARLINK-3356,PAYLOAD,2024-07-09 04:24:32,15.08835157,0.0001307,53.2166,150.8116,94.6435,265.4707,5.835e-05,6.41e-06,0.0,0 STARLINK-3356,1 51133U 22005AF  24191.18370703  .00000641  00000-0  58350-4 0  9994,2 51133  53.2166 150.8116 0001307  94.6435 265.4707 15.08835157137984,6917.895,95.438,540.664,538.856,0.0
51133.0,STARLINK-3356,PAYLOAD,2024-07-09 13:56:50,15.08842607,0.000133,53.2169,149.0289,96.2071,263.9073,6.6742e-05,7.75e-06,0.0,0 STARLINK-3356,1 51133U 22005AF  24191.58114245  .00000775  00000-0  66742-4 0  9997,2 51133  53.2169 149.0289 0001330  96.2071 263.9073 15.08842607136928,6917.872,95.437,540.657,538.817,0.0
51133.0,STARLINK-3356,PAYLOAD,2024-07-10 04:15:20,15.08826172,0.0001535,53.2186,146.3559,99.7198,260.3967,-3.1606e-05,-7.91e-06,0.0,0 STARLINK-3356,1 51133U 22005AF  24192.17731976 -.00000791  00000-0 -31606-4 0  9990,2 51133  53.2186 146.3559 0001535  99.7198 260.3967 15.08826172138139,6917.923,95.438,540.85,538.726,0.0
51133.0,STARLINK-3356,PAYLOAD,2024-07-10 13:47:38,15.08839223,0.0001402,53.2172,144.5682,89.6488,270.4665,3.7441e-05,3.08e-06,0.0,0 STARLINK-3356,1 51133U 22005AF  24192.57475040  .00000308  00000-0  37441-4 0  9996,2 51133  53.2172 144.5682 0001402  89.6488 270.4665 15.08839223137074,6917.883,95.438,540.718,538.778,0.0
51133.0,STARLINK-3356,PAYLOAD,2024-07-11 05:41:29,15.08840233,0.0001543,53.2178,141.5948,83.8651,276.2517,5.4687e-05,5.82e-06,0.0,0 STARLINK-3356,1 51133U 22005AF  24193.23715196  .00000582  00000-0  54687-4 0  9994,2 51133  53.2178 141.5948 0001543  83.8651 276.2517 15.08840233137170,6917.88,95.438,540.812,538.677,0.0
